start=new Date('2022-03-01T00:00:00.000Z').valueOf();
sats=[{"OBJECT_ID":"2020-057AA","RCS_SIZE":"LARGE","TLE_LINE2":"2 46141  53.0540  36.7967 0001744  60.8717 299.2446 15.06402176 85021","FILE":"3333642","COUNTRY_CODE":"US","NORAD_CAT_ID":"46141","APOAPSIS":"548.415","REV_AT_EPOCH":"8502","OBJECT_TYPE":"PAYLOAD","REF_FRAME":"TEME","ARG_OF_PERICENTER":"60.8717","TIME_SYSTEM":"UTC","GP_ID":"197358528","PERIAPSIS":"545.999","CENTER_NAME":"EARTH","MEAN_MOTION":"15.06402176","SEMIMAJOR_AXIS":"6925.342","PERIOD":"95.592","MEAN_MOTION_DOT":"0.00002224","MEAN_MOTION_DDOT":"0.0000000000000","OBJECT_NAME":"STARLINK-1596","MEAN_ELEMENT_THEORY":"SGP4","EPHEMERIS_TYPE":"0","BSTAR":"0.00016812000000","TLE_LINE1":"1 46141U 20057AA  22059.44549712  .00002224  00000-0  16812-3 0  9995","EPOCH":"2022-02-28T10:41:30.951168","INCLINATION":"53.0540","LAUNCH_DATE":"2020-08-18","RA_OF_ASC_NODE":"36.7967","CLASSIFICATION_TYPE":"U","ELEMENT_SET_NO":"999","DECAY_DATE":null,"ECCENTRICITY":"0.00017440","MEAN_ANOMALY":"299.2446","SITE":"AFETR"},{"ECCENTRICITY":"0.00015800","MEAN_ANOMALY":"304.2812","SITE":"AFETR","CLASSIFICATION_TYPE":"U","ELEMENT_SET_NO":"999","DECAY_DATE":null,"INCLINATION":"53.0533","LAUNCH_DATE":"2020-08-18","RA_OF_ASC_NODE":"76.4252","EPOCH":"2022-02-28T12:43:35.736672","MEAN_ELEMENT_THEORY":"SGP4","EPHEMERIS_TYPE":"0","BSTAR":"0.00015136000000","TLE_LINE1":"1 46142U 20057AB  22059.53027473  .00001974  00000-0  15136-3 0  9990","REF_FRAME":"TEME","TIME_SYSTEM":"UTC","ARG_OF_PERICENTER":"55.8327","PERIAPSIS":"546.089","GP_ID":"197359272","CENTER_NAME":"EARTH","MEAN_MOTION":"15.06409806","SEMIMAJOR_AXIS":"6925.319","PERIOD":"95.592","MEAN_MOTION_DOT":"0.00001974","MEAN_MOTION_DDOT":"0.0000000000000","OBJECT_NAME":"STARLINK-1597","FILE":"3333642","TLE_LINE2":"2 46142  53.0533  76.4252 0001580  55.8327 304.2812 15.06409806 84470","COUNTRY_CODE":"US","APOAPSIS":"548.278","NORAD_CAT_ID":"46142","REV_AT_EPOCH":"8447","OBJECT_TYPE":"PAYLOAD","OBJECT_ID":"2020-057AB","RCS_SIZE":"LARGE"},{"COUNTRY_CODE":"US","APOAPSIS":"548.434","NORAD_CAT_ID":"46144","TLE_LINE2":"2 46144  53.0555  56.8807 0001740  60.8044 299.3119 15.06395118 72992","FILE":"3333642","OBJECT_TYPE":"PAYLOAD","REV_AT_EPOCH":"7299","RCS_SIZE":"LARGE","OBJECT_ID":"2020-057AD","EPHEMERIS_TYPE":"0","MEAN_ELEMENT_THEORY":"SGP4","BSTAR":"0.00012269000000","TLE_LINE1":"1 46144U 20057AD  22059.42891879  .00001546  00000-0  12269-3 0  9998","PERIAPSIS":"546.024","GP_ID":"197359529","MEAN_MOTION":"15.06395118","CENTER_NAME":"EARTH","REF_FRAME":"TEME","ARG_OF_PERICENTER":"60.8044","TIME_SYSTEM":"UTC","MEAN_MOTION_DOT":"0.00001546","MEAN_MOTION_DDOT":"0.0000000000000","OBJECT_NAME":"STARLINK-1606","SEMIMAJOR_AXIS":"6925.364","PERIOD":"95.592","INCLINATION":"53.0555","RA_OF_ASC_NODE":"56.8807","LAUNCH_DATE":"2020-08-18","EPOCH":"2022-02-28T10:17:38.583456","MEAN_ANOMALY":"299.3119","ECCENTRICITY":"0.00017400","SITE":"AFETR","DECAY_DATE":null,"CLASSIFICATION_TYPE":"U","ELEMENT_SET_NO":"999"},{"FILE":"3334872","TLE_LINE2":"2 46146  53.0536  75.4689 0001780  57.4831 302.6330 15.06392026 84517","COUNTRY_CODE":"US","NORAD_CAT_ID":"46146","APOAPSIS":"548.471","REV_AT_EPOCH":"8451","OBJECT_TYPE":"PAYLOAD","OBJECT_ID":"2020-057AF","RCS_SIZE":"LARGE","MEAN_ELEMENT_THEORY":"SGP4","EPHEMERIS_TYPE":"0","BSTAR":"0.00008722500000","TLE_LINE1":"1 46146U 20057AF  22059.74038547  .00001018  00000-0  87225-4 0  9999","REF_FRAME":"TEME","TIME_SYSTEM":"UTC","ARG_OF_PERICENTER":"57.4831","MEAN_MOTION":"15.06392026","GP_ID":"197409153","PERIAPSIS":"546.005","CENTER_NAME":"EARTH","SEMIMAJOR_AXIS":"6925.373","PERIOD":"95.593","MEAN_MOTION_DOT":"0.00001018","OBJECT_NAME":"STARLINK-1608","MEAN_MOTION_DDOT":"0.0000000000000","INCLINATION":"53.0536","LAUNCH_DATE":"2020-08-18","RA_OF_ASC_NODE":"75.4689","EPOCH":"2022-02-28T17:46:09.304608","ECCENTRICITY":"0.00017800","MEAN_ANOMALY":"302.6330","SITE":"AFETR","ELEMENT_SET_NO":"999","CLASSIFICATION_TYPE":"U","DECAY_DATE":null},{"EPOCH":"2022-02-28T10:57:26.056512","LAUNCH_DATE":"2020-08-18","RA_OF_ASC_NODE":"76.7427","INCLINATION":"53.0553","ELEMENT_SET_NO":"999","CLASSIFICATION_TYPE":"U","DECAY_DATE":null,"SITE":"AFETR","ECCENTRICITY":"0.00020990","MEAN_ANOMALY":"317.5599","OBJECT_ID":"2020-057AG","RCS_SIZE":"LARGE","REV_AT_EPOCH":"8572","OBJECT_TYPE":"PAYLOAD","FILE":"3333642","TLE_LINE2":"2 46147  53.0553  76.7427 0002099  42.5553 317.5599 15.06410364 85723","COUNTRY_CODE":"US","APOAPSIS":"548.635","NORAD_CAT_ID":"46147","SEMIMAJOR_AXIS":"6925.317","PERIOD":"95.591","MEAN_MOTION_DOT":"0.00001079","OBJECT_NAME":"STARLINK-1611","MEAN_MOTION_DDOT":"0.0000000000000","REF_FRAME":"TEME","ARG_OF_PERICENTER":"42.5553","TIME_SYSTEM":"UTC","CENTER_NAME":"EARTH","GP_ID":"197359028","PERIAPSIS":"545.728","MEAN_MOTION":"15.06410364","BSTAR":"0.00009133700000","TLE_LINE1":"1 46147U 20057AG  22059.45655158  .00001079  00000-0  91337-4 0  9997","MEAN_ELEMENT_THEORY":"SGP4","EPHEMERIS_TYPE":"0"},{"SEMIMAJOR_AXIS":"6925.311","PERIOD":"95.591","MEAN_MOTION_DOT":"0.00001731","OBJECT_NAME":"STARLINK-1616","MEAN_MOTION_DDOT":"0.0000000000000","REF_FRAME":"TEME","TIME_SYSTEM":"UTC","ARG_OF_PERICENTER":"63.5399","MEAN_MOTION":"15.06412224","GP_ID":"197359772","PERIAPSIS":"545.918","CENTER_NAME":"EARTH","BSTAR":"0.00013501000000","TLE_LINE1":"1 46148U 20057AH  22059.39573397  .00001731  00000-0  13501-3 0  9996","MEAN_ELEMENT_THEORY":"SGP4","EPHEMERIS_TYPE":"0","OBJECT_ID":"2020-057AH","RCS_SIZE":"LARGE","REV_AT_EPOCH":"8473","OBJECT_TYPE":"PAYLOAD","FILE":"3333642","TLE_LINE2":"2 46148  53.0565  57.0153 0001817  63.5399 296.5776 15.06412224 84733","COUNTRY_CODE":"US","NORAD_CAT_ID":"46148","APOAPSIS":"548.434","ELEMENT_SET_NO":"999","CLASSIFICATION_TYPE":"U","DECAY_DATE":null,"SITE":"AFETR","ECCENTRICITY":"0.00018170","MEAN_ANOMALY":"296.5776","EPOCH":"2022-02-28T09:29:51.415008","LAUNCH_DATE":"2020-08-18","RA_OF_ASC_NODE":"57.0153","INCLINATION":"53.0565"},{"ELEMENT_SET_NO":"999","CLASSIFICATION_TYPE":"U","DECAY_DATE":null,"SITE":"AFETR","ECCENTRICITY":"0.00015990","MEAN_ANOMALY":"294.9529","EPOCH":"2022-02-28T16:13:14.712672","LAUNCH_DATE":"2020-08-18","RA_OF_ASC_NODE":"55.7722","INCLINATION":"53.0560","SEMIMAJOR_AXIS":"6925.321","PERIOD":"95.592","MEAN_MOTION_DOT":"0.00000863","MEAN_MOTION_DDOT":"0.0000000000000","OBJECT_NAME":"STARLINK-1620","REF_FRAME":"TEME","ARG_OF_PERICENTER":"65.1627","TIME_SYSTEM":"UTC","CENTER_NAME":"EARTH","GP_ID":"197408901","PERIAPSIS":"546.079","MEAN_MOTION":"15.06408883","BSTAR":"0.00007678500000","TLE_LINE1":"1 46149U 20057AJ  22059.67586473  .00000863  00000-0  76785-4 0  9996","EPHEMERIS_TYPE":"0","MEAN_ELEMENT_THEORY":"SGP4","OBJECT_ID":"2020-057AJ","RCS_SIZE":"LARGE","REV_AT_EPOCH":"8605","OBJECT_TYPE":"PAYLOAD","TLE_LINE2":"2 46149  53.0560  55.7722 0001599  65.1627 294.9529 15.06408883 86056","FILE":"3334872","COUNTRY_CODE":"US","NORAD_CAT_ID":"46149","APOAPSIS":"548.294"},{"SITE":"AFETR","MEAN_ANOMALY":"301.2786","ECCENTRICITY":"0.00016770","DECAY_DATE":null,"ELEMENT_SET_NO":"999","CLASSIFICATION_TYPE":"U","RA_OF_ASC_NODE":"76.6772","LAUNCH_DATE":"2020-08-18","INCLINATION":"53.0545","EPOCH":"2022-02-28T11:18:40.291488","BSTAR":"0.00008343800000","TLE_LINE1":"1 46150U 20057AK  22059.47129967  .00000962  00000-0  83438-4 0  9990","EPHEMERIS_TYPE":"0","MEAN_ELEMENT_THEORY":"SGP4","MEAN_MOTION_DOT":"0.00000962","MEAN_MOTION_DDOT":"0.0000000000000","OBJECT_NAME":"STARLINK-1629","SEMIMAJOR_AXIS":"6925.337","PERIOD":"95.592","PERIAPSIS":"546.041","GP_ID":"197366850","MEAN_MOTION":"15.06403792","CENTER_NAME":"EARTH","REF_FRAME":"TEME","ARG_OF_PERICENTER":"58.8367","TIME_SYSTEM":"UTC","OBJECT_TYPE":"PAYLOAD","REV_AT_EPOCH":"8513","COUNTRY_CODE":"US","NORAD_CAT_ID":"46150","APOAPSIS":"548.363","TLE_LINE2":"2 46150  53.0545  76.6772 0001677  58.8367 301.2786 15.06403792 85134","FILE":"3333768","RCS_SIZE":"LARGE","OBJECT_ID":"2020-057AK"},{"EPOCH":"2022-02-28T17:06:19.372608","LAUNCH_DATE":"2020-08-18","RA_OF_ASC_NODE":"55.5989","INCLINATION":"53.0546","ELEMENT_SET_NO":"999","CLASSIFICATION_TYPE":"U","DECAY_DATE":null,"SITE":"AFETR","ECCENTRICITY":"0.00015760","MEAN_ANOMALY":"301.7995","OBJECT_ID":"2020-057AL","RCS_SIZE":"LARGE","REV_AT_EPOCH":"8478","OBJECT_TYPE":"PAYLOAD","FILE":"3334872","TLE_LINE2":"2 46151  53.0546  55.5989 0001576  58.3147 301.7995 15.06406522 84782","COUNTRY_CODE":"US","NORAD_CAT_ID":"46151","APOAPSIS":"548.285","SEMIMAJOR_AXIS":"6925.329","PERIOD":"95.592","MEAN_MOTION_DOT":"0.00002865","MEAN_MOTION_DDOT":"0.0000000000000","OBJECT_NAME":"STARLINK-1631","REF_FRAME":"TEME","TIME_SYSTEM":"UTC","ARG_OF_PERICENTER":"58.3147","GP_ID":"197409404","CENTER_NAME":"EARTH","PERIAPSIS":"546.102","MEAN_MOTION":"15.06406522","BSTAR":"0.00021110000000","TLE_LINE1":"1 46151U 20057AL  22059.71272422  .00002865  00000-0  21110-3 0  9995","EPHEMERIS_TYPE":"0","MEAN_ELEMENT_THEORY":"SGP4"},{"DECAY_DATE":null,"ELEMENT_SET_NO":"999","CLASSIFICATION_TYPE":"U","MEAN_ANOMALY":"294.6376","ECCENTRICITY":"0.00015570","SITE":"AFETR","EPOCH":"2022-02-28T10:20:17.465280","INCLINATION":"53.0549","RA_OF_ASC_NODE":"76.8689","LAUNCH_DATE":"2020-08-18","GP_ID":"197359273","PERIAPSIS":"546.120","CENTER_NAME":"EARTH","MEAN_MOTION":"15.06405034","TIME_SYSTEM":"UTC","ARG_OF_PERICENTER":"65.4775","REF_FRAME":"TEME","OBJECT_NAME":"STARLINK-1634","MEAN_MOTION_DDOT":"0.0000000000000","MEAN_MOTION_DOT":"0.00000935","PERIOD":"95.592","SEMIMAJOR_AXIS":"6925.333","MEAN_ELEMENT_THEORY":"SGP4","EPHEMERIS_TYPE":"0","TLE_LINE1":"1 46152U 20057AM  22059.43075770  .00000935  00000-0  81628-4 0  9999","BSTAR":"0.00008162800000","RCS_SIZE":"LARGE","OBJECT_ID":"2020-057AM","APOAPSIS":"548.276","NORAD_CAT_ID":"46152","COUNTRY_CODE":"US","FILE":"3333642","TLE_LINE2":"2 46152  53.0549  76.8689 0001557  65.4775 294.6376 15.06405034 84469","OBJECT_TYPE":"PAYLOAD","REV_AT_EPOCH":"8446"}];
